{
  "type": "FeatureCollection",
  "features": [
    {
      "type": "Feature",
      "properties": {
        "norad_id": 15362,
        "name": "NOVA 3",
        "group": "nnss",
        "lat": 88.07431233795783,
        "lon": 77.05223266602925,
        "alt_km": 1185.328855100609,
        "timestamp": "2025-12-24T18:55:56.336881+00:00",
        "meta_object_name": "NOVA 3",
        "meta_object_id": "1984-110A",
        "meta_epoch": "2025-12-24T06:03:19.897632",
        "meta_mean_motion": 13.23045945,
        "meta_eccentricity": 0.00298899,
        "meta_inclination": 90.1217,
        "meta_ra_of_asc_node": 80.6701,
        "meta_arg_of_pericenter": 298.7449,
        "meta_mean_anomaly": 115.1614,
        "meta_ephemeris_type": 0,
        "meta_classification_type": "U",
        "meta_norad_cat_id": 15362,
        "meta_element_set_no": 999,
        "meta_rev_at_epoch": 98851,
        "meta_bstar": 0.0001686354,
        "meta_mean_motion_dot": 7.9e-07,
        "meta_mean_motion_ddot": 0,
        "tle_line1": "1 15362U 84110A   25358.25231363  .00000079  00000+0  16864-3 0  9992",
        "tle_line2": "2 15362  90.1217  80.6701 0029889 298.7449 115.1614 13.23045945988516"
      },
      "geometry": {
        "type": "Point",
        "coordinates": [
          77.05223266602925,
          88.07431233795783
        ]
      }
    },
    {
      "type": "Feature",
      "properties": {
        "norad_id": 15935,
        "name": "OSCAR 30",
        "group": "nnss",
        "lat": 11.980189528387225,
        "lon": 100.00900061185699,
        "alt_km": 1024.6522010716508,
        "timestamp": "2025-12-24T18:55:56.336891+00:00",
        "meta_object_name": "OSCAR 30",
        "meta_object_id": "1985-066A",
        "meta_epoch": "2025-12-24T06:32:53.151360",
        "meta_mean_motion": 13.36080216,
        "meta_eccentricity": 0.01689191,
        "meta_inclination": 90.1653,
        "meta_ra_of_asc_node": 100.0357,
        "meta_arg_of_pericenter": 51.6688,
        "meta_mean_anomaly": 1.1151,
        "meta_ephemeris_type": 0,
        "meta_classification_type": "U",
        "meta_norad_cat_id": 15935,
        "meta_element_set_no": 999,
        "meta_rev_at_epoch": 96607,
        "meta_bstar": 0.00019050802,
        "meta_mean_motion_dot": 1.15e-06,
        "meta_mean_motion_ddot": 0,
        "tle_line1": "1 15935U 85066A   25358.27283740  .00000115  00000+0  19051-3 0  9999",
        "tle_line2": "2 15935  90.1653 100.0357 0168919  51.6688   1.1151 13.36080216966070"
      },
      "geometry": {
        "type": "Point",
        "coordinates": [
          100.00900061185699,
          11.980189528387225
        ]
      }
    },
    {
      "type": "Feature",
      "properties": {
        "norad_id": 15936,
        "name": "OSCAR 24",
        "group": "nnss",
        "lat": 83.28505275403322,
        "lon": 90.99621681713917,
        "alt_km": 1002.5302080954943,
        "timestamp": "2025-12-24T18:55:56.336902+00:00",
        "meta_object_name": "OSCAR 24",
        "meta_object_id": "1985-066B",
        "meta_epoch": "2025-12-24T01:24:08.384832",
        "meta_mean_motion": 13.35937329,
        "meta_eccentricity": 0.01701063,
        "meta_inclination": 90.1791,
        "meta_ra_of_asc_node": 92.5056,
        "meta_arg_of_pericenter": 58.7246,
        "meta_mean_anomaly": 112.9277,
        "meta_ephemeris_type": 0,
        "meta_classification_type": "U",
        "meta_norad_cat_id": 15936,
        "meta_element_set_no": 999,
        "meta_rev_at_epoch": 96794,
        "meta_bstar": 0.00014322832,
        "meta_mean_motion_dot": 8.9e-07,
        "meta_mean_motion_ddot": 0,
        "tle_line1": "1 15936U 85066B   25358.05843038  .00000089  00000+0  14323-3 0  9995",
        "tle_line2": "2 15936  90.1791  92.5056 0170106  58.7246 112.9277 13.35937329967946"
      },
      "geometry": {
        "type": "Point",
        "coordinates": [
          90.99621681713917,
          83.28505275403322
        ]
      }
    },
    {
      "type": "Feature",
      "properties": {
        "norad_id": 17070,
        "name": "POLAR BEAR",
        "group": "nnss",
        "lat": -2.078533873995703,
        "lon": 3.3050098308470193,
        "alt_km": 987.8369205041017,
        "timestamp": "2025-12-24T18:55:56.336913+00:00",
        "meta_object_name": "POLAR BEAR",
        "meta_object_id": "1986-088A",
        "meta_epoch": "2025-12-24T06:40:05.611008",
        "meta_mean_motion": 13.75253086,
        "meta_eccentricity": 0.00412897,
        "meta_inclination": 89.617,
        "meta_ra_of_asc_node": 183.3117,
        "meta_arg_of_pericenter": 86.0705,
        "meta_mean_anomaly": 87.0296,
        "meta_ephemeris_type": 0,
        "meta_classification_type": "U",
        "meta_norad_cat_id": 17070,
        "meta_element_set_no": 999,
        "meta_rev_at_epoch": 96137,
        "meta_bstar": 9.0942479e-05,
        "meta_mean_motion_dot": 9.9e-07,
        "meta_mean_motion_ddot": 0,
        "tle_line1": "1 17070U 86088A   25358.27784272  .00000099  00000+0  90942-4 0  9992",
        "tle_line2": "2 17070  89.6170 183.3117 0041289  86.0705  87.0296 13.75253086961370"
      },
      "geometry": {
        "type": "Point",
        "coordinates": [
          3.3050098308470193,
          -2.078533873995703
        ]
      }
    },
    {
      "type": "Feature",
      "properties": {
        "norad_id": 18361,
        "name": "OSCAR 27",
        "group": "nnss",
        "lat": -24.971804890153575,
        "lon": -100.45129860637627,
        "alt_km": 1021.8933742520157,
        "timestamp": "2025-12-24T18:55:56.336923+00:00",
        "meta_object_name": "OSCAR 27",
        "meta_object_id": "1987-080A",
        "meta_epoch": "2025-12-23T22:16:33.536352",
        "meta_mean_motion": 13.44908878,
        "meta_eccentricity": 0.0103856,
        "meta_inclination": 90.3737,
        "meta_ra_of_asc_node": 79.6907,
        "meta_arg_of_pericenter": 191.5852,
        "meta_mean_anomaly": 168.2905,
        "meta_ephemeris_type": 0,
        "meta_classification_type": "U",
        "meta_norad_cat_id": 18361,
        "meta_element_set_no": 999,
        "meta_rev_at_epoch": 87707,
        "meta_bstar": 0.00016473,
        "meta_mean_motion_dot": 1.08e-06,
        "meta_mean_motion_ddot": 0,
        "tle_line1": "1 18361U 87080A   25357.92816593  .00000108  00000+0  16473-3 0  9999",
        "tle_line2": "2 18361  90.3737  79.6907 0103856 191.5852 168.2905 13.44908878877074"
      },
      "geometry": {
        "type": "Point",
        "coordinates": [
          -100.45129860637627,
          -24.971804890153575
        ]
      }
    },
    {
      "type": "Feature",
      "properties": {
        "norad_id": 18362,
        "name": "OSCAR 29",
        "group": "nnss",
        "lat": -16.67156798602204,
        "lon": -99.92965411983978,
        "alt_km": 1022.2935509900253,
        "timestamp": "2025-12-24T18:55:56.336934+00:00",
        "meta_object_name": "OSCAR 29",
        "meta_object_id": "1987-080B",
        "meta_epoch": "2025-12-23T11:38:40.001280",
        "meta_mean_motion": 13.44450427,
        "meta_eccentricity": 0.01046277,
        "meta_inclination": 90.375,
        "meta_ra_of_asc_node": 80.1339,
        "meta_arg_of_pericenter": 216.0464,
        "meta_mean_anomaly": 154.8179,
        "meta_ephemeris_type": 0,
        "meta_classification_type": "U",
        "meta_norad_cat_id": 18362,
        "meta_element_set_no": 999,
        "meta_rev_at_epoch": 87654,
        "meta_bstar": 0.00017755719,
        "meta_mean_motion_dot": 1.15e-06,
        "meta_mean_motion_ddot": 0,
        "tle_line1": "1 18362U 87080B   25357.48518520  .00000115  00000+0  17756-3 0  9993",
        "tle_line2": "2 18362  90.3750  80.1339 0104627 216.0464 154.8179 13.44450427876542"
      },
      "geometry": {
        "type": "Point",
        "coordinates": [
          -99.92965411983978,
          -16.67156798602204
        ]
      }
    },
    {
      "type": "Feature",
      "properties": {
        "norad_id": 19070,
        "name": "OSCAR 23",
        "group": "nnss",
        "lat": -29.75338991939674,
        "lon": 16.948968950726538,
        "alt_km": 1304.1732203369356,
        "timestamp": "2025-12-24T18:55:56.336944+00:00",
        "meta_object_name": "OSCAR 23",
        "meta_object_id": "1988-033A",
        "meta_epoch": "2025-12-24T01:16:30.251424",
        "meta_mean_motion": 13.27788942,
        "meta_eccentricity": 0.01904233,
        "meta_inclination": 90.3203,
        "meta_ra_of_asc_node": 16.7429,
        "meta_arg_of_pericenter": 148.5361,
        "meta_mean_anomaly": 267.2442,
        "meta_ephemeris_type": 0,
        "meta_classification_type": "U",
        "meta_norad_cat_id": 19070,
        "meta_element_set_no": 999,
        "meta_rev_at_epoch": 82403,
        "meta_bstar": 0.00014553194,
        "meta_mean_motion_dot": 8.2e-07,
        "meta_mean_motion_ddot": 0,
        "tle_line1": "1 19070U 88033A   25358.05312791  .00000082  00000+0  14553-3 0  9990",
        "tle_line2": "2 19070  90.3203  16.7429 0190423 148.5361 267.2442 13.27788942824037"
      },
      "geometry": {
        "type": "Point",
        "coordinates": [
          16.948968950726538,
          -29.75338991939674
        ]
      }
    }
  ]
}